[{"OBJECT_NAME":"STARLINK-11660 [DTC]","OBJECT_ID":"2025-089L","EPOCH":"2025-11-10T15:15:09.626976","MEAN_MOTION":15.7094112,"ECCENTRICITY":0.00017315,"INCLINATION":42.9985,"RA_OF_ASC_NODE":289.6578,"ARG_OF_PERICENTER":37.2172,"MEAN_ANOMALY":322.8816,"EPHEMERIS_TYPE":0,"CLASSIFICATION_TYPE":"U","NORAD_CAT_ID":63761,"ELEMENT_SET_NO":999,"REV_AT_EPOCH":3136,"BSTAR":0.0032626701,"MEAN_MOTION_DOT":0.00443187,"MEAN_MOTION_DDOT":0},{"OBJECT_NAME":"STARLINK-11699 [DTC]","OBJECT_ID":"2025-089M","EPOCH":"2025-11-10T08:38:30.023808","MEAN_MOTION":15.70879471,"ECCENTRICITY":0.00021405,"INCLINATION":43.0002,"RA_OF_ASC_NODE":291.9161,"ARG_OF_PERICENTER":240.8712,"MEAN_ANOMALY":119.1942,"EPHEMERIS_TYPE":0,"CLASSIFICATION_TYPE":"U","NORAD_CAT_ID":63762,"ELEMENT_SET_NO":999,"REV_AT_EPOCH":3136,"BSTAR":0.00096484847,"MEAN_MOTION_DOT":0.00125452,"MEAN_MOTION_DDOT":0},{"OBJECT_NAME":"STARLINK-11693 [DTC]","OBJECT_ID":"2025-089N","EPOCH":"2025-11-10T23:01:53.970816","MEAN_MOTION":15.70912895,"ECCENTRICITY":0.0001278,"INCLINATION":42.9981,"RA_OF_ASC_NODE":287.7911,"ARG_OF_PERICENTER":240.3756,"MEAN_ANOMALY":119.6985,"EPHEMERIS_TYPE":0,"CLASSIFICATION_TYPE":"U","NORAD_CAT_ID":63763,"ELEMENT_SET_NO":999,"REV_AT_EPOCH":3135,"BSTAR":0.0023193858,"MEAN_MOTION_DOT":0.0030946,"MEAN_MOTION_DDOT":0},{"OBJECT_NAME":"STARLINK-33760","OBJECT_ID":"2025-089P","EPOCH":"2025-11-10T09:47:59.757792","MEAN_MOTION":15.2757815,"ECCENTRICITY":0.00021577,"INCLINATION":43.0041,"RA_OF_ASC_NODE":358.9921,"ARG_OF_PERICENTER":269.3792,"MEAN_ANOMALY":90.6812,"EPHEMERIS_TYPE":0,"CLASSIFICATION_TYPE":"U","NORAD_CAT_ID":63764,"ELEMENT_SET_NO":999,"REV_AT_EPOCH":3071,"BSTAR":0.0013215429,"MEAN_MOTION_DOT":0.00036282,"MEAN_MOTION_DDOT":0},{"OBJECT_NAME":"STARLINK-33941","OBJECT_ID":"2025-089Q","EPOCH":"2025-11-10T11:25:49.930176","MEAN_MOTION":15.27629026,"ECCENTRICITY":0.00016416,"INCLINATION":43.0015,"RA_OF_ASC_NODE":358.6424,"ARG_OF_PERICENTER":247.9903,"MEAN_ANOMALY":112.0775,"EPHEMERIS_TYPE":0,"CLASSIFICATION_TYPE":"U","NORAD_CAT_ID":63765,"ELEMENT_SET_NO":999,"REV_AT_EPOCH":3071,"BSTAR":0.0017647307,"MEAN_MOTION_DOT":0.00048694,"MEAN_MOTION_DDOT":0},{"OBJECT_NAME":"STARLINK-33824","OBJECT_ID":"2025-089R","EPOCH":"2025-11-10T19:40:42.702816","MEAN_MOTION":15.27604832,"ECCENTRICITY":2.995e-5,"INCLINATION":42.9974,"RA_OF_ASC_NODE":356.9299,"ARG_OF_PERICENTER":331.6893,"MEAN_ANOMALY":28.3942,"EPHEMERIS_TYPE":0,"CLASSIFICATION_TYPE":"U","NORAD_CAT_ID":63766,"ELEMENT_SET_NO":999,"REV_AT_EPOCH":3077,"BSTAR":0.0012513721,"MEAN_MOTION_DOT":0.0003436,"MEAN_MOTION_DDOT":0},{"OBJECT_NAME":"STARLINK-33808","OBJECT_ID":"2025-089S","EPOCH":"2025-11-10T09:35:03.480576","MEAN_MOTION":15.27627665,"ECCENTRICITY":0.00014936,"INCLINATION":43.0017,"RA_OF_ASC_NODE":358.9256,"ARG_OF_PERICENTER":252.8745,"MEAN_ANOMALY":107.1943,"EPHEMERIS_TYPE":0,"CLASSIFICATION_TYPE":"U","NORAD_CAT_ID":63767,"ELEMENT_SET_NO":999,"REV_AT_EPOCH":3071,"BSTAR":0.0017691221,"MEAN_MOTION_DOT":0.00048814,"MEAN_MOTION_DDOT":0},{"OBJECT_NAME":"STARLINK-33844","OBJECT_ID":"2025-089T","EPOCH":"2025-11-10T20:06:22.864896","MEAN_MOTION":15.27601523,"ECCENTRICITY":0.00014888,"INCLINATION":43.005,"RA_OF_ASC_NODE":356.195,"ARG_OF_PERICENTER":279.0385,"MEAN_ANOMALY":81.0298,"EPHEMERIS_TYPE":0,"CLASSIFICATION_TYPE":"U","NORAD_CAT_ID":63768,"ELEMENT_SET_NO":999,"REV_AT_EPOCH":3078,"BSTAR":0.001448066,"MEAN_MOTION_DOT":0.00039827,"MEAN_MOTION_DDOT":0},{"OBJECT_NAME":"STARLINK-33907","OBJECT_ID":"2025-089U","EPOCH":"2025-11-10T12:50:44.882016","MEAN_MOTION":15.27622544,"ECCENTRICITY":0.0001124,"INCLINATION":43.0007,"RA_OF_ASC_NODE":358.2236,"ARG_OF_PERICENTER":266.8862,"MEAN_ANOMALY":93.1861,"EPHEMERIS_TYPE":0,"CLASSIFICATION_TYPE":"U","NORAD_CAT_ID":63769,"ELEMENT_SET_NO":999,"REV_AT_EPOCH":3068,"BSTAR":0.0017707703,"MEAN_MOTION_DOT":0.00048852,"MEAN_MOTION_DDOT":0},{"OBJECT_NAME":"STARLINK-33884","OBJECT_ID":"2025-089V","EPOCH":"2025-11-10T20:08:14.126496","MEAN_MOTION":15.27591047,"ECCENTRICITY":6.364e-5,"INCLINATION":42.9978,"RA_OF_ASC_NODE":356.2036,"ARG_OF_PERICENTER":312.4934,"MEAN_ANOMALY":47.5864,"EPHEMERIS_TYPE":0,"CLASSIFICATION_TYPE":"U","NORAD_CAT_ID":63770,"ELEMENT_SET_NO":999,"REV_AT_EPOCH":3073,"BSTAR":0.001250783,"MEAN_MOTION_DOT":0.00034329,"MEAN_MOTION_DDOT":0},{"OBJECT_NAME":"STARLINK-33841","OBJECT_ID":"2025-089W","EPOCH":"2025-11-10T20:19:20.955648","MEAN_MOTION":15.27587308,"ECCENTRICITY":0.00012821,"INCLINATION":42.9971,"RA_OF_ASC_NODE":356.2648,"ARG_OF_PERICENTER":47.032,"MEAN_ANOMALY":313.0639,"EPHEMERIS_TYPE":0,"CLASSIFICATION_TYPE":"U","NORAD_CAT_ID":63771,"ELEMENT_SET_NO":999,"REV_AT_EPOCH":3073,"BSTAR":0.001684027,"MEAN_MOTION_DOT":0.00046381,"MEAN_MOTION_DDOT":0},{"OBJECT_NAME":"STARLINK-33769","OBJECT_ID":"2025-089X","EPOCH":"2025-11-10T20:04:31.484064","MEAN_MOTION":15.27603996,"ECCENTRICITY":0.00019213,"INCLINATION":43.0041,"RA_OF_ASC_NODE":356.1814,"ARG_OF_PERICENTER":267.9864,"MEAN_ANOMALY":92.0768,"EPHEMERIS_TYPE":0,"CLASSIFICATION_TYPE":"U","NORAD_CAT_ID":63773,"ELEMENT_SET_NO":999,"REV_AT_EPOCH":3077,"BSTAR":0.0014531749,"MEAN_MOTION_DOT":0.00039973,"MEAN_MOTION_DDOT":0},{"OBJECT_NAME":"STARLINK-33914","OBJECT_ID":"2025-089Y","EPOCH":"2025-11-10T04:05:08.926944","MEAN_MOTION":15.27580988,"ECCENTRICITY":0.000212,"INCLINATION":43.0047,"RA_OF_ASC_NODE":356.281,"ARG_OF_PERICENTER":279.8516,"MEAN_ANOMALY":80.2097,"EPHEMERIS_TYPE":0,"CLASSIFICATION_TYPE":"U","NORAD_CAT_ID":63774,"ELEMENT_SET_NO":999,"REV_AT_EPOCH":3072,"BSTAR":0.0011867541,"MEAN_MOTION_DOT":0.00032541,"MEAN_MOTION_DDOT":0},{"OBJECT_NAME":"STARLINK-33932","OBJECT_ID":"2025-091A","EPOCH":"2025-11-10T03:52:08.318496","MEAN_MOTION":15.27607889,"ECCENTRICITY":4.734e-5,"INCLINATION":42.9993,"RA_OF_ASC_NODE":7.4103,"ARG_OF_PERICENTER":283.3808,"MEAN_ANOMALY":76.6991,"EPHEMERIS_TYPE":0,"CLASSIFICATION_TYPE":"U","NORAD_CAT_ID":63775,"ELEMENT_SET_NO":999,"REV_AT_EPOCH":3066,"BSTAR":0.0014629318,"MEAN_MOTION_DOT":0.00040249,"MEAN_MOTION_DDOT":0},{"OBJECT_NAME":"STARLINK-33930","OBJECT_ID":"2025-091B","EPOCH":"2025-11-10T10:58:44.422176","MEAN_MOTION":15.2758759,"ECCENTRICITY":0.00013206,"INCLINATION":43.0031,"RA_OF_ASC_NODE":6.1968,"ARG_OF_PERICENTER":292.9137,"MEAN_ANOMALY":67.1575,"EPHEMERIS_TYPE":0,"CLASSIFICATION_TYPE":"U","NORAD_CAT_ID":63776,"ELEMENT_SET_NO":999,"REV_AT_EPOCH":3066,"BSTAR":0.0015109757,"MEAN_MOTION_DOT":0.00041561,"MEAN_MOTION_DDOT":0},{"OBJECT_NAME":"STARLINK-33911","OBJECT_ID":"2025-091C","EPOCH":"2025-11-10T11:38:47.011776","MEAN_MOTION":15.27579809,"ECCENTRICITY":0.00013554,"INCLINATION":42.9988,"RA_OF_ASC_NODE":358.5771,"ARG_OF_PERICENTER":272.8008,"MEAN_ANOMALY":87.2689,"EPHEMERIS_TYPE":0,"CLASSIFICATION_TYPE":"U","NORAD_CAT_ID":63777,"ELEMENT_SET_NO":999,"REV_AT_EPOCH":3075,"BSTAR":0.0019185919,"MEAN_MOTION_DOT":0.00052913,"MEAN_MOTION_DDOT":0}]
