STARLINK-11660 [DTC]    
1 63761U 25089L   25314.63552809  .00443187  00000+0  32627-2 0  9998
2 63761  42.9985 289.6578 0001731  37.2172 322.8816 15.70941120 31364
STARLINK-11699 [DTC]    
1 63762U 25089M   25314.36006972  .00125452  00000+0  96485-3 0  9999
2 63762  43.0002 291.9161 0002140 240.8712 119.1942 15.70879471 31364
STARLINK-11693 [DTC]    
1 63763U 25089N   25314.95965244  .00309460  00000+0  23194-2 0  9990
2 63763  42.9981 287.7911 0001278 240.3756 119.6985 15.70912895 31358
STARLINK-33760          
1 63764U 25089P   25314.40833053  .00036282  00000+0  13215-2 0  9995
2 63764  43.0041 358.9921 0002157 269.3792  90.6812 15.27578150 30718
STARLINK-33941          
1 63765U 25089Q   25314.47627234  .00048694  00000+0  17647-2 0  9998
2 63765  43.0015 358.6424 0001641 247.9903 112.0775 15.27629026 30714
STARLINK-33824          
1 63766U 25089R   25314.81993869  .00034360  00000+0  12514-2 0  9990
2 63766  42.9974 356.9299 0000299 331.6893  28.3942 15.27604832 30774
STARLINK-33808          
1 63767U 25089S   25314.39934584  .00048814  00000+0  17691-2 0  9993
2 63767  43.0017 358.9256 0001493 252.8745 107.1943 15.27627665 30717
STARLINK-33844          
1 63768U 25089T   25314.83776464  .00039827  00000+0  14481-2 0  9992
2 63768  43.0050 356.1950 0001488 279.0385  81.0298 15.27601523 30786
STARLINK-33907          
1 63769U 25089U   25314.53524169  .00048852  00000+0  17708-2 0  9996
2 63769  43.0007 358.2236 0001124 266.8862  93.1861 15.27622544 30685
STARLINK-33884          
1 63770U 25089V   25314.83905239  .00034329  00000+0  12508-2 0  9999
2 63770  42.9978 356.2036 0000636 312.4934  47.5864 15.27591047 30738
STARLINK-33841          
1 63771U 25089W   25314.84677032  .00046381  00000+0  16840-2 0  9992
2 63771  42.9971 356.2648 0001282  47.0320 313.0639 15.27587308 30735
STARLINK-33769          
1 63773U 25089X   25314.83647551  .00039973  00000+0  14532-2 0  9991
2 63773  43.0041 356.1814 0001921 267.9864  92.0768 15.27603996 30770
STARLINK-33914          
1 63774U 25089Y   25314.17024221  .00032541  00000+0  11868-2 0  9995
2 63774  43.0047 356.2810 0002120 279.8516  80.2097 15.27580988 30726
STARLINK-33932          
1 63775U 25091A   25314.16120739  .00040249  00000+0  14629-2 0  9991
2 63775  42.9993   7.4103 0000473 283.3808  76.6991 15.27607889 30663
STARLINK-33930          
1 63776U 25091B   25314.45745859  .00041561  00000+0  15110-2 0  9994
2 63776  43.0031   6.1968 0001320 292.9137  67.1575 15.27587590 30666
STARLINK-33911          
1 63777U 25091C   25314.48526634  .00052913  00000+0  19186-2 0  9996
2 63777  42.9988 358.5771 0001355 272.8008  87.2689 15.27579809 30757
